FORMOSAT 7-1            
1 44349U 19036L   25290.15463014  .00006992  00000+0  55423-3 0  9992
2 44349  23.9975 232.1243 0000913  17.8511 342.2022 14.97859347348191
FORMOSAT 7-4            
1 44350U 19036M   25290.70904590  .00005919  00000+0  46553-3 0  9996
2 44350  23.9989 290.4637 0000981  23.3804 336.6742 14.97847673347693
FORMOSAT 7-2            
1 44351U 19036N   25290.46522227  .00005589  00000+0  43809-3 0  9997
2 44351  23.9999 346.4284 0001049  34.3778 325.6791 14.97850029347177
FORMOSAT 7-6            
1 44353U 19036Q   25290.66520757  .00005580  00000+0  43739-3 0  9990
2 44353  23.9974 165.9031 0001606  34.1366 325.9238 14.97846830345437
FORMOSAT 7-5            
1 44358U 19036V   25290.18134002  .00005304  00000+0  41051-3 0  9995
2 44358  23.9985 107.9904 0000643 210.7444 149.3020 14.98215713345896
METEOR-M2 2             
1 44387U 19038A   25290.74698286  .00000261  00000+0  13290-3 0  9991
2 44387  98.8907 269.8065 0001681  37.0850 323.0444 14.24255490326786
COSMOS 2535             
1 44421U 19039A   25290.70190566  .00002142  00000+0  22122-3 0  9999
2 44421  97.6071 322.8711 0007240 307.2132  52.8426 14.91138571340499
GLOBAL-4                
1 44499U 19054E   25290.65658801  .00037894  00000+0  80249-3 0  9992
2 44499  45.0105 174.0063 0007261 183.8282 176.2553 15.44501125342631
ZY-1 02D                
1 44528U 19059A   25287.15072339  .00000267  00000+0  10751-3 0  9992
2 44528  98.3547 351.9094 0002441 121.9823 238.1601 14.35464302319049
TAURUS-1 (JINNIUZUO 1)  
1 44530U 19059C   25290.69356339  .00012359  00000+0  21706-2 0  9999
2 44530  98.6203  76.5277 0008687 351.3367   8.7685 14.67805999323018
ZHUHAI-1 03B            
1 44536U 19060C   25290.69814736  .00037179  00000+0  99215-3 0  9995
2 44536  97.5327  73.7251 0012485 119.3572 240.8921 15.37956784338858
ZHUHAI-1 03C            
1 44537U 19060D   25290.74292534  .00055759  00000+0  98263-3 0  9994
2 44537  97.5573  79.0500 0015772  81.5168 278.7870 15.50106605339208
ZHUHAI-1 03D            
1 44538U 19060E   25290.71421167  .00032999  00000+0  97117-3 0  9996
2 44538  97.5161  67.8351 0011544 102.9459 257.3074 15.34937524338702
ZHUHAI-1 03E            
1 44539U 19060F   25290.68262595  .00029125  00000+0  96753-3 0  9993
2 44539  97.5360  69.4812 0010964 155.6853 204.4908 15.31105540338534
ATLAS 5 CENTAUR DEB     
1 44694U 18079BG  25285.87738219 -.00000100  00000+0  00000+0 0  9999
2 44694  13.3559  59.3952 4745602 259.3795  45.7896  1.77426823 42179
GAOFEN-7                
1 44703U 19072A   25290.76657402  .00008344  00000+0  37107-3 0  9991
2 44703  97.2784 355.8636 0013113 152.6935 207.4994 15.21664184330787
STARLINK-1010           
1 44716U 19074D   25290.75002315  .00358562  00000+0  11400-2 0  9990
2 44716  53.0464  42.4135 0002879  54.0126 208.1347 15.89727376  6038
JILIN-1 GAOFEN 2A       
1 44777U 19075A   25290.71201582  .00020718  00000+0  68941-3 0  9993
2 44777  97.5213   4.9679 0007023 221.3966 138.6744 15.31155802327673
NINGXIA-1 1             
1 44779U 19076A   25290.75857652  .00000028  00000+0  10260-3 0  9998
2 44779  45.0046 183.1823 0010580  86.5252 273.6792 14.01985511303838
NINGXIA-1 5             
1 44783U 19076E   25290.77134064  .00000033  00000+0  10582-3 0  9993
2 44783  45.0044 182.4693 0010535  74.6002 285.5996 14.01970102303758
KL-ALPHA A              
1 44785U 19077A   25290.72396117  .00000092  00000+0  11305-3 0  9999
2 44785  88.9106 249.2534 0013215  94.7016 265.5647 13.56010296292876
CARTOSAT-3              
1 44804U 19081A   25290.71179241  .00007092  00000+0  33916-3 0  9991
2 44804  97.4670 350.9777 0012839 280.1765  79.8021 15.19231437326650
JILIN-1 GAOFEN 2B       
1 44836U 19086A   25290.72484513  .00010849  00000+0  55276-3 0  9990
2 44836  97.5193 359.4740 0016709  85.3232 274.9909 15.16834165323681
DUCHIFAT-3              
1 44854U 19089C   25290.20453201  .00181681  00000+0  16939-2 0  9991
2 44854  36.9344 242.4838 0009441 242.7440 117.2361 15.65785100323184
ANGELS                  
1 44876U 19092D   25290.51889424  .00053958  00000+0  85325-3 0  9994
2 44876  97.4423 132.8731 0006408  28.4450 331.7151 15.53274707324243
TIANQIN 1 (CAS-6)       
1 44879U 19093A   25290.74121822  .00005110  00000+0  48925-3 0  9996
2 44879  97.8000  11.4159 0012455 137.2062 223.0129 14.93569088315839
ETRSS-1                 
1 44880U 19093B   25290.73260714  .00005372  00000+0  51145-3 0  9999
2 44880  97.8013  11.7054 0012775 137.6658 222.5550 14.93765061315833
TIANYAN 01              
1 44881U 19093C   25290.74446880  .00001605  00000+0  18986-3 0  9992
2 44881  97.7817   3.6180 0014180 158.8591 201.3214 14.85907572315409
TIANYAN 02              
1 44882U 19093D   25290.70371413  .00012381  00000+0  97257-3 0  9999
2 44882  97.8091  18.8231 0017030 128.4361 231.8395 15.00927109316185
CBERS 4A                
1 44883U 19093E   25290.70666230  .00001813  00000+0  23708-3 0  9992
2 44883  97.7813   0.3544 0001303 170.3848 189.7391 14.81629895315176
WEILAI 1R               
1 44884U 19093F   25290.73106054  .00009247  00000+0  79392-3 0  9998
2 44884  97.8057  15.5104 0011328 128.4450 231.7790 14.97642640316092
FLORIPASAT-1            
1 44885U 19093G   25290.70219007  .00010733  00000+0  86281-3 0  9996
2 44885  97.8091  18.6650 0010928 142.9122 217.2858 15.00147676316248
SHUNTIAN                
1 44886U 19093H   25290.68374608  .00004561  00000+0  43957-3 0  9998
2 44886  97.8157  15.2268 0012857 147.6374 212.5637 14.93363419315961
2019-093L               
1 44889U 19093L   25290.68441007  .00005779  00000+0  56645-3 0  9999
2 44889  97.7795   6.8296 0013420 134.6807 225.5507 14.92568275315609
ELEKTRO-L 3             
1 44903U 19095A   25288.92866501  .00000000  00000+0  00000+0 0  9994
2 44903   0.0132 352.9511 0001987 264.2986 177.8127  1.00269929 21257
GONETS-M 14             
1 44905U 19096A   25290.75070873  .00000026  00000+0  11511-3 0  9991
2 44905  82.5233 234.9015 0013367 328.0676  31.9592 12.42897731263568
GONETS-M 15             
1 44906U 19096B   25290.69695882  .00000033  00000+0  16923-3 0  9998
2 44906  82.5252 235.3532 0015928 350.1505   9.9260 12.42862380263526
GONETS-M 16             
1 44907U 19096C   25290.72656896  .00000030  00000+0  14504-3 0  9995
2 44907  82.5199 234.4007 0012366  30.4505 329.7290 12.42859612263514
RS-44 & BREEZE-KM R/B   
1 44909U 19096E   25290.56822527  .00000041  00000+0  12209-3 0  9997
2 44909  82.5196 140.9398 0217437 351.9236   7.8384 12.79744637271310
JILIN-1 KUANFU 01       
1 45016U 20003A   25290.70988038  .00005902  00000+0  36166-3 0  9992
2 45016  97.5306   4.2383 0006496 107.9622 252.2316 15.10525642318734
XINGYUN-2 01            
1 45602U 20028A   25290.71820773  .00004686  00000+0  29016-3 0  9996
2 45602  97.4748 283.4081 0008323 329.3588  30.7154 15.10240946298223
XINGYUN-2 02            
1 45603U 20028B   25290.72745796  .00003683  00000+0  22976-3 0  9993
2 45603  97.5109 296.2105 0012236  33.6554 326.5450 15.10076390298226
HAIYANG-1D              
1 45721U 20036A   25290.74674339  .00000330  00000+0  13313-3 0  9990
2 45721  98.4265 233.0527 0003550 134.1872 225.9605 14.34201509280228
M2 PATHFINDER           
1 45727U 20037E   25290.60038442  .00005381  00000+0  40410-3 0  9990
2 45727  97.8148 114.3104 0011398 251.4959 108.5027 15.02991994289039
GAOFEN DUOMO (GFDM)     
1 45856U 20042A   25290.71833194  .00001386  00000+0  20408-3 0  9994
2 45856  97.8106 353.9639 0012710 132.9459 227.2819 14.76881846285226
ZINYUAN-3               
1 45939U 20051A   25290.68377743  .00009300  00000+0  41899-3 0  9996
2 45939  97.3155   0.8070 0005157 125.3240 234.8478 15.21255587290471
TYVAK-0172              
1 46267U 20059C   25290.56980292  .00078700  00000+0  17549-2 0  9999
2 46267  97.7433 157.0402 0003455  77.8632 282.3001 15.43285176280917
ION-MK01                
1 46274U 20061C   25290.62571551  .00059781  00000+0  73587-3 0  9994
2 46274  97.2283 359.7940 0002660 108.9914 251.1632 15.60047665285183
NEMO-HD                 
1 46277U 20061F   25290.73093840  .00015473  00000+0  40640-3 0  9993
2 46277  97.2301 350.5825 0001766 132.4576 227.6819 15.38700249284622
3CAT-5A                 
1 46292U 20061W   25290.66090147  .00020452  00000+0  56048-3 0  9991
2 46292  97.2796 349.8032 0000556 298.7782  61.3407 15.37330308283651
3CAT-5B                 
1 46293U 20061X   25290.61459936  .00022114  00000+0  59219-3 0  9992
2 46293  97.2802 350.3492 0000812 284.9226  75.1929 15.38030168283656
NAPA-1                  
1 46320U 20061BA  25290.74434626  .00041974  00000+0  88281-3 0  9992
2 46320  97.2860 356.0491 0001771 128.6813 231.4594 15.45191877284057
JILIN-1 GAOFEN 3B       
1 46454U 20065A   25290.71928100  .00070387  00000+0  11222-2 0  9996
2 46454  97.2637 339.3678 0001984 293.3363  66.7681 15.52999320282370
JILIN-1 GAOFEN 3E       
1 46457U 20065D   25290.71110510  .00037560  00000+0  85988-3 0  9994
2 46457  97.2696 336.1688 0017435 337.2390  22.8082 15.42536919282143
JILIN-1 GAOFEN 3F       
1 46458U 20065E   25290.75320231  .00039804  00000+0  93762-3 0  9994
2 46458  97.2630 334.2914 0018370 323.0451  36.9529 15.41650431282139
JILIN-1 GAOFEN 3G       
1 46459U 20065F   25290.74149858  .00044992  00000+0  95977-3 0  9992
2 46459  97.2735 338.7715 0016880 219.9436 140.0572 15.44607650282238
JILIN-1 GAOFEN 3H       
1 46460U 20065G   25290.73591189  .00042941  00000+0  93500-3 0  9993
2 46460  97.2649 335.8719 0011956 148.1338 212.0637 15.44088476282218
JILIN-1 GAOFEN 3J       
1 46462U 20065J   25290.73944669  .00061497  00000+0  10313-2 0  9997
2 46462  97.2672 339.1539 0003032 291.6120  68.4809 15.51617801282360
HAIYANG-2C              
1 46469U 20066A   25290.76142222 -.00000020  00000+0  55759-4 0  9994
2 46469  65.9954  98.8699 0013996 273.3781  86.5686 13.83375607255966
